{
  "schemaVersion": 2,
  "epoch": {
    "name": "J2026",
    "jdTdb": 2461041.5
  },
  "frame": "heliocentric-ecliptic-j2000",
  "bodies": [
    {
      "id": "ganymede",
      "name": "Ganymede",
      "kind": "moon",
      "horizonsId": 503,
      "parentId": "jupiter",
      "muKm3S2": 9887.83275,
      "meanRadiusKm": 2631.2,
      "siderealRotationPeriodSec": 618153.3792,
      "axialTiltRad": 0.0,
      "geometricAlbedo": 0.43,
      "soiRadiusKm": 24360.06048886164,
      "elements": {
        "semiMajorAxisKm": 1070853.5991436674,
        "eccentricity": 0.002185745104694443,
        "inclinationRad": 0.040824042971616153,
        "longitudeAscendingNodeRad": 5.920689942477229,
        "argumentPeriapsisRad": 5.908376137475131,
        "meanAnomalyRad": 0.4080182406521882
      },
      "surface": {
        "kind": "solid",
        "atmosphereTopKm": null
      },
      "visual": {
        "albedoColor": "#8f8170",
        "assetRef": null,
        "proceduralSeed": 503,
        "polarRadiusRatio": 1.0
      }
    },
    {
      "id": "callisto",
      "name": "Callisto",
      "kind": "moon",
      "horizonsId": 504,
      "parentId": "jupiter",
      "muKm3S2": 7179.2834,
      "meanRadiusKm": 2410.3,
      "siderealRotationPeriodSec": 1441931.1552000002,
      "axialTiltRad": 0.0,
      "geometricAlbedo": 0.22,
      "soiRadiusKm": 37679.70014303399,
      "elements": {
        "semiMajorAxisKm": 1882639.5679004113,
        "eccentricity": 0.007346750444366292,
        "inclinationRad": 0.03406215544837914,
        "longitudeAscendingNodeRad": 5.876573110882052,
        "argumentPeriapsisRad": 0.5796629478401345,
        "meanAnomalyRad": 1.3775624412653098
      },
      "surface": {
        "kind": "solid",
        "atmosphereTopKm": null
      },
      "visual": {
        "albedoColor": "#69645f",
        "assetRef": null,
        "proceduralSeed": 504,
        "polarRadiusRatio": 1.0
      }
    },
    {
      "id": "saturn",
      "name": "Saturn",
      "kind": "planet",
      "horizonsId": 699,
      "parentId": "sun",
      "muKm3S2": 37931207.8,
      "meanRadiusKm": 58232.0,
      "siderealRotationPeriodSec": 38362.464,
      "axialTiltRad": 0.4665265090580843,
      "geometricAlbedo": 0.499,
      "soiRadiusKm": 54586460.15282691,
      "elements": {
        "semiMajorAxisKm": 1427745884.2200341,
        "eccentricity": 0.05540366888330445,
        "inclinationRad": 0.043400328563223275,
        "longitudeAscendingNodeRad": 1.9820110182122646,
        "argumentPeriapsisRad": 5.906880253704148,
        "meanAnomalyRad": 4.815691327073566
      },
      "surface": {
        "kind": "gas",
        "atmosphereTopKm": null
      },
      "visual": {
        "albedoColor": "#d8c28e",
        "assetRef": null,
        "proceduralSeed": 699,
        "polarRadiusRatio": 1.0
      }
    },
    {
      "id": "mimas",
      "name": "Mimas",
      "kind": "moon",
      "horizonsId": 601,
      "parentId": "saturn",
      "muKm3S2": 2.50349,
      "meanRadiusKm": 198.2,
      "siderealRotationPeriodSec": 81425.24352,
      "axialTiltRad": 0.0,
      "geometricAlbedo": 0.962,
      "soiRadiusKm": 249.68090831429933,
      "elements": {
        "semiMajorAxisKm": 186022.57846619803,
        "eccentricity": 0.02040121733131113,
        "inclinationRad": 0.5170996302431998,
        "longitudeAscendingNodeRad": 2.9601650589207735,
        "argumentPeriapsisRad": 4.50767594858817,
        "meanAnomalyRad": 1.2210043869837799
      },
      "surface": {
        "kind": "solid",
        "atmosphereTopKm": null
      },
      "visual": {
        "albedoColor": "#bdbbb4",
        "assetRef": null,
        "proceduralSeed": 601,
        "polarRadiusRatio": 1.0
      }
    },
    {
      "id": "enceladus",
      "name": "Enceladus",
      "kind": "moon",
      "horizonsId": 602,
      "parentId": "saturn",
      "muKm3S2": 7.21037,
      "meanRadiusKm": 252.1,
      "siderealRotationPeriodSec": 118386.8352,
      "axialTiltRad": 0.0,
      "geometricAlbedo": 1.0,
      "soiRadiusKm": 488.55266281362543,
      "elements": {
        "semiMajorAxisKm": 238411.40819388357,
        "eccentricity": 0.005043359335948436,
        "inclinationRad": 0.48961238289542697,
        "longitudeAscendingNodeRad": 2.9585907201462325,
        "argumentPeriapsisRad": 1.440325724681327,
        "meanAnomalyRad": 5.1149963987349
      },
      "surface": {
        "kind": "solid",
        "atmosphereTopKm": null
      },
      "visual": {
        "albedoColor": "#e5e6e3",
        "assetRef": null,
        "proceduralSeed": 602,
        "polarRadiusRatio": 1.0
      }
    },
    {
      "id": "tethys",
      "name": "Tethys",
      "kind": "moon",
      "horizonsId": 603,
      "parentId": "saturn",
      "muKm3S2": 41.21353,
      "meanRadiusKm": 531.1,
      "siderealRotationPeriodSec": 163106.09279999998,
      "axialTiltRad": 0.0,
      "geometricAlbedo": 0.8,
      "soiRadiusKm": 1213.95488978987,
      "elements": {
        "semiMajorAxisKm": 294975.0557038069,
        "eccentricity": 0.0011169562627565,
        "inclinationRad": 0.4749009249951521,
        "longitudeAscendingNodeRad": 2.984988413408244,
        "argumentPeriapsisRad": 5.526583218446936,
        "meanAnomalyRad": 6.199943049868496
      },
      "surface": {
        "kind": "solid",
        "atmosphereTopKm": null
      },
      "visual": {
        "albedoColor": "#c8c5bd",
        "assetRef": null,
        "proceduralSeed": 603,
        "polarRadiusRatio": 1.0
      }
    },
    {
      "id": "dione",
      "name": "Dione",
      "kind": "moon",
      "horizonsId": 604,
      "parentId": "saturn",
      "muKm3S2": 73.11607,
      "meanRadiusKm": 561.4,
      "siderealRotationPeriodSec": 236469.456,
      "axialTiltRad": 0.0,
      "geometricAlbedo": 0.99,
      "soiRadiusKm": 1954.7894104265856,
      "elements": {
        "semiMajorAxisKm": 377653.4968512183,
        "eccentricity": 0.001639905272472106,
        "inclinationRad": 0.4891208129736965,
        "longitudeAscendingNodeRad": 2.958849373899611,
        "argumentPeriapsisRad": 4.4839544373218185,
        "meanAnomalyRad": 2.819060794484772
      },
      "surface": {
        "kind": "solid",
        "atmosphereTopKm": null
      },
      "visual": {
        "albedoColor": "#c6c4be",
        "assetRef": null,
        "proceduralSeed": 604,
        "polarRadiusRatio": 1.0
      }
    },
    {
      "id": "rhea",
      "name": "Rhea",
      "kind": "moon",
      "horizonsId": 605,
      "parentId": "saturn",
      "muKm3S2": 153.94175,
      "meanRadiusKm": 763.5,
      "siderealRotationPeriodSec": 390373.5168,
      "axialTiltRad": 0.0,
      "geometricAlbedo": 0.949,
      "soiRadiusKm": 3675.6194973296465,
      "elements": {
        "semiMajorAxisKm": 527213.6518835825,
        "eccentricity": 0.0008829075806850464,
        "inclinationRad": 0.49292654060064156,
        "longitudeAscendingNodeRad": 2.96766140698098,
        "argumentPeriapsisRad": 2.745647759932755,
        "meanAnomalyRad": 4.729340322126171
      },
      "surface": {
        "kind": "solid",
        "atmosphereTopKm": null
      },
      "visual": {
        "albedoColor": "#aaa9a4",
        "assetRef": null,
        "proceduralSeed": 605,
        "polarRadiusRatio": 1.0
      }
    },
    {
      "id": "titan",
      "name": "Titan",
      "kind": "moon",
      "horizonsId": 606,
      "parentId": "saturn",
      "muKm3S2": 8978.1371,
      "meanRadiusKm": 2574.76,
      "siderealRotationPeriodSec": 1377684.3743999999,
      "axialTiltRad": 0.0,
      "geometricAlbedo": 0.22,
      "soiRadiusKm": 43323.76292707471,
      "elements": {
        "semiMajorAxisKm": 1221941.3070272454,
        "eccentricity": 0.0288120138307629,
        "inclinationRad": 0.4836126099193813,
        "longitudeAscendingNodeRad": 2.950957404152591,
        "argumentPeriapsisRad": 3.105698196087039,
        "meanAnomalyRad": 6.148978605321177
      },
      "surface": {
        "kind": "solid",
        "atmosphereTopKm": null
      },
      "visual": {
        "albedoColor": "#c68d42",
        "assetRef": null,
        "proceduralSeed": 606,
        "polarRadiusRatio": 1.0
      }
    },
    {
      "id": "iapetus",
      "name": "Iapetus",
      "kind": "moon",
      "horizonsId": 608,
      "parentId": "saturn",
      "muKm3S2": 120.51511,
      "meanRadiusKm": 734.3,
      "siderealRotationPeriodSec": 6853377.6,
      "axialTiltRad": 0.0,
      "geometricAlbedo": 0.05,
      "soiRadiusKm": 22497.695183987536,
      "elements": {
        "semiMajorAxisKm": 3558935.329615883,
        "eccentricity": 0.02905377097729711,
        "inclinationRad": 0.29662409682944413,
        "longitudeAscendingNodeRad": 2.424190490864092,
        "argumentPeriapsisRad": 4.032106269459374,
        "meanAnomalyRad": 1.78175475011479
      },
      "surface": {
        "kind": "solid",
        "atmosphereTopKm": null
      },
      "visual": {
        "albedoColor": "#77736d",
        "assetRef": null,
        "proceduralSeed": 608,
        "polarRadiusRatio": 1.0
      }
    },
    {
      "id": "uranus",
      "name": "Uranus",
      "kind": "planet",
      "horizonsId": 799,
      "parentId": "sun",
      "muKm3S2": 5793951.322,
      "meanRadiusKm": 25362.0,
      "siderealRotationPeriodSec": -62063.712,
      "axialTiltRad": 1.706408409674856,
      "geometricAlbedo": 0.488,
      "soiRadiusKm": 52016988.75875279,
      "elements": {
        "semiMajorAxisKm": 2884827997.531245,
        "eccentricity": 0.04681618294428753,
        "inclinationRad": 0.013521504250119309,
        "longitudeAscendingNodeRad": 1.2911849182409856,
        "argumentPeriapsisRad": 1.5945951204720321,
        "meanAnomalyRad": 4.527476804240359
      },
      "surface": {
        "kind": "gas",
        "atmosphereTopKm": null
      },
      "visual": {
        "albedoColor": "#9ccbd3",
        "assetRef": null,
        "proceduralSeed": 799,
        "polarRadiusRatio": 1.0
      }
    }
  ]
}
